HORS 3 (RS81S)          
1 61753U 24199U   26063.79882683  .00043351  00000+0  82788-3 0  9996
2 61753  97.3135 298.0097 0006099 314.7745  45.3008 15.47982818121379
HORS 4 (RS82S)          
1 61754U 24199V   26063.81086885  .00053385  00000+0  92502-3 0  9993
2 61754  97.3109 298.7001 0005707 311.7030  48.3733 15.50718288121428
HORIZON (RS59S)         
1 61757U 24199Y   26063.77327522  .00150263  00000+0  12993-2 0  9995
2 61757  97.3083 302.3625 0003149 284.1769  75.9142 15.68723149121652
ARCTICSAT 1 (RS74S)     
1 61762U 24199AD  26063.77268182  .00114907  00000+0  11771-2 0  9995
2 61762  97.3102 301.9150 0003549 281.2662  78.8198 15.64601638121626
SIT-2086                
1 61764U 24199AF  26063.80761653  .00032386  00000+0  63328-3 0  9998
2 61764  97.3130 298.7549 0006241 294.0428  66.0168 15.47358371118264
RUZAEVKA 390 (RS44S)    
1 61766U 24199AH  26063.81238506  .01230725  87440-3  18457-2 0  9994
2 61766  97.2841 305.7881 0002085 163.9326 196.2021 16.04940616118745
HYPERVIEW 1G (RS66S)    
1 61772U 24199AP  26063.80982309  .00082714  00000+0  11278-2 0  9996
2 61772  97.3093 299.7576 0006870 308.1740  51.8896 15.57212445118345
ALTAIR (RS65S)          
1 61779U 24199AW  26063.81223385  .00015719  00000+0  46561-3 0  9991
2 61779  97.3187 293.9082 0012527 327.5875  32.4598 15.34875043121098
ASRTU-1 (AO-123)        
1 61781U 24199AY  26063.78891198  .00013214  00000+0  40345-3 0  9995
2 61781  97.3160 293.4208 0013276 329.4362  30.6106 15.33944849117912
TUSUR GO (RS78S)        
1 61782U 24199AZ  26063.78777954  .00156181  00000+0  13262-2 0  9997
2 61782  97.3036 301.3877 0004170 305.5604  54.5268 15.69145325118458
SAMSAT-IONOSPHERE (RS7*)
1 61784U 24199BB  26063.82660890  .00048963  00000+0  89827-3 0  9993
2 61784  97.3123 297.8230 0009084 315.0721  44.9794 15.49084690121360
RTU MIREA 1 (RS51S)     
1 61785U 24199BC  26063.83046329  .00054724  00000+0  93946-3 0  9999
2 61785  97.3120 298.2578 0008737 310.5619  49.4872 15.50950454118240
TEVEL2-4                
1 63213U 25052D   26063.66087203  .00027592  00000+0  93067-3 0  9990
2 63213  97.4028 320.1035 0004531 104.7572 255.4171 15.30670344 54108
TEVEL2-5                
1 63214U 25052E   26063.14840650  .00028908  00000+0  97911-3 0  9991
2 63214  97.4033 319.5661 0004480 105.8513 254.3222 15.30526069 54022
TEVEL2-6                
1 63215U 25052F   26063.22346347  .00030455  00000+0  10323-2 0  9996
2 63215  97.4034 319.6264 0004592 107.2069 252.9674 15.30490560 54032
TEVEL2-1                
1 63217U 25052H   26063.48181592  .00030609  00000+0  10503-2 0  9996
2 63217  97.4007 319.6219 0004488 115.3956 244.7750 15.30092239 54061
