[{"OBJECT_NAME":"HORS 3 (RS81S)","OBJECT_ID":"2024-199U","EPOCH":"2026-03-04T19:10:18.638112","MEAN_MOTION":15.47982818,"ECCENTRICITY":0.0006099,"INCLINATION":97.3135,"RA_OF_ASC_NODE":298.0097,"ARG_OF_PERICENTER":314.7745,"MEAN_ANOMALY":45.3008,"EPHEMERIS_TYPE":0,"CLASSIFICATION_TYPE":"U","NORAD_CAT_ID":61753,"ELEMENT_SET_NO":999,"REV_AT_EPOCH":12137,"BSTAR":0.00082788,"MEAN_MOTION_DOT":0.00043351,"MEAN_MOTION_DDOT":0},{"OBJECT_NAME":"HORS 4 (RS82S)","OBJECT_ID":"2024-199V","EPOCH":"2026-03-04T19:27:39.068640","MEAN_MOTION":15.50718288,"ECCENTRICITY":0.0005707,"INCLINATION":97.3109,"RA_OF_ASC_NODE":298.7001,"ARG_OF_PERICENTER":311.703,"MEAN_ANOMALY":48.3733,"EPHEMERIS_TYPE":0,"CLASSIFICATION_TYPE":"U","NORAD_CAT_ID":61754,"ELEMENT_SET_NO":999,"REV_AT_EPOCH":12142,"BSTAR":0.00092502,"MEAN_MOTION_DOT":0.00053385,"MEAN_MOTION_DDOT":0},{"OBJECT_NAME":"HORIZON (RS59S)","OBJECT_ID":"2024-199Y","EPOCH":"2026-03-04T18:33:30.979008","MEAN_MOTION":15.68723149,"ECCENTRICITY":0.0003149,"INCLINATION":97.3083,"RA_OF_ASC_NODE":302.3625,"ARG_OF_PERICENTER":284.1769,"MEAN_ANOMALY":75.9142,"EPHEMERIS_TYPE":0,"CLASSIFICATION_TYPE":"U","NORAD_CAT_ID":61757,"ELEMENT_SET_NO":999,"REV_AT_EPOCH":12165,"BSTAR":0.0012993,"MEAN_MOTION_DOT":0.00150263,"MEAN_MOTION_DDOT":0},{"OBJECT_NAME":"ARCTICSAT 1 (RS74S)","OBJECT_ID":"2024-199AD","EPOCH":"2026-03-04T18:32:39.709248","MEAN_MOTION":15.64601638,"ECCENTRICITY":0.0003549,"INCLINATION":97.3102,"RA_OF_ASC_NODE":301.915,"ARG_OF_PERICENTER":281.2662,"MEAN_ANOMALY":78.8198,"EPHEMERIS_TYPE":0,"CLASSIFICATION_TYPE":"U","NORAD_CAT_ID":61762,"ELEMENT_SET_NO":999,"REV_AT_EPOCH":12162,"BSTAR":0.0011771,"MEAN_MOTION_DOT":0.00114907,"MEAN_MOTION_DDOT":0},{"OBJECT_NAME":"SIT-2086","OBJECT_ID":"2024-199AF","EPOCH":"2026-03-04T19:22:58.068192","MEAN_MOTION":15.47358371,"ECCENTRICITY":0.0006241,"INCLINATION":97.313,"RA_OF_ASC_NODE":298.7549,"ARG_OF_PERICENTER":294.0428,"MEAN_ANOMALY":66.0168,"EPHEMERIS_TYPE":0,"CLASSIFICATION_TYPE":"U","NORAD_CAT_ID":61764,"ELEMENT_SET_NO":999,"REV_AT_EPOCH":11826,"BSTAR":0.00063328,"MEAN_MOTION_DOT":0.00032386,"MEAN_MOTION_DDOT":0},{"OBJECT_NAME":"RUZAEVKA 390 (RS44S)","OBJECT_ID":"2024-199AH","EPOCH":"2026-03-04T19:29:50.069184","MEAN_MOTION":16.04940616,"ECCENTRICITY":0.0002085,"INCLINATION":97.2841,"RA_OF_ASC_NODE":305.7881,"ARG_OF_PERICENTER":163.9326,"MEAN_ANOMALY":196.2021,"EPHEMERIS_TYPE":0,"CLASSIFICATION_TYPE":"U","NORAD_CAT_ID":61766,"ELEMENT_SET_NO":999,"REV_AT_EPOCH":11874,"BSTAR":0.0018457,"MEAN_MOTION_DOT":0.01230725,"MEAN_MOTION_DDOT":0.0008744},{"OBJECT_NAME":"HYPERVIEW 1G (RS66S)","OBJECT_ID":"2024-199AP","EPOCH":"2026-03-04T19:26:08.714976","MEAN_MOTION":15.57212445,"ECCENTRICITY":0.000687,"INCLINATION":97.3093,"RA_OF_ASC_NODE":299.7576,"ARG_OF_PERICENTER":308.174,"MEAN_ANOMALY":51.8896,"EPHEMERIS_TYPE":0,"CLASSIFICATION_TYPE":"U","NORAD_CAT_ID":61772,"ELEMENT_SET_NO":999,"REV_AT_EPOCH":11834,"BSTAR":0.0011278,"MEAN_MOTION_DOT":0.00082714,"MEAN_MOTION_DDOT":0},{"OBJECT_NAME":"ALTAIR (RS65S)","OBJECT_ID":"2024-199AW","EPOCH":"2026-03-04T19:29:37.004640","MEAN_MOTION":15.34875043,"ECCENTRICITY":0.0012527,"INCLINATION":97.3187,"RA_OF_ASC_NODE":293.9082,"ARG_OF_PERICENTER":327.5875,"MEAN_ANOMALY":32.4598,"EPHEMERIS_TYPE":0,"CLASSIFICATION_TYPE":"U","NORAD_CAT_ID":61779,"ELEMENT_SET_NO":999,"REV_AT_EPOCH":12109,"BSTAR":0.00046561,"MEAN_MOTION_DOT":0.00015719,"MEAN_MOTION_DDOT":0},{"OBJECT_NAME":"ASRTU-1 (AO-123)","OBJECT_ID":"2024-199AY","EPOCH":"2026-03-04T18:56:01.995072","MEAN_MOTION":15.33944849,"ECCENTRICITY":0.0013276,"INCLINATION":97.316,"RA_OF_ASC_NODE":293.4208,"ARG_OF_PERICENTER":329.4362,"MEAN_ANOMALY":30.6106,"EPHEMERIS_TYPE":0,"CLASSIFICATION_TYPE":"U","NORAD_CAT_ID":61781,"ELEMENT_SET_NO":999,"REV_AT_EPOCH":11791,"BSTAR":0.00040345,"MEAN_MOTION_DOT":0.00013214,"MEAN_MOTION_DDOT":0},{"OBJECT_NAME":"TUSUR GO (RS78S)","OBJECT_ID":"2024-199AZ","EPOCH":"2026-03-04T18:54:24.152256","MEAN_MOTION":15.69145325,"ECCENTRICITY":0.000417,"INCLINATION":97.3036,"RA_OF_ASC_NODE":301.3877,"ARG_OF_PERICENTER":305.5604,"MEAN_ANOMALY":54.5268,"EPHEMERIS_TYPE":0,"CLASSIFICATION_TYPE":"U","NORAD_CAT_ID":61782,"ELEMENT_SET_NO":999,"REV_AT_EPOCH":11845,"BSTAR":0.0013262,"MEAN_MOTION_DOT":0.00156181,"MEAN_MOTION_DDOT":0},{"OBJECT_NAME":"SAMSAT-IONOSPHERE (RS75S)","OBJECT_ID":"2024-199BB","EPOCH":"2026-03-04T19:50:19.008960","MEAN_MOTION":15.4908469,"ECCENTRICITY":0.0009084,"INCLINATION":97.3123,"RA_OF_ASC_NODE":297.823,"ARG_OF_PERICENTER":315.0721,"MEAN_ANOMALY":44.9794,"EPHEMERIS_TYPE":0,"CLASSIFICATION_TYPE":"U","NORAD_CAT_ID":61784,"ELEMENT_SET_NO":999,"REV_AT_EPOCH":12136,"BSTAR":0.00089827,"MEAN_MOTION_DOT":0.00048963,"MEAN_MOTION_DDOT":0},{"OBJECT_NAME":"RTU MIREA 1 (RS51S)","OBJECT_ID":"2024-199BC","EPOCH":"2026-03-04T19:55:52.028256","MEAN_MOTION":15.50950454,"ECCENTRICITY":0.0008737,"INCLINATION":97.312,"RA_OF_ASC_NODE":298.2578,"ARG_OF_PERICENTER":310.5619,"MEAN_ANOMALY":49.4872,"EPHEMERIS_TYPE":0,"CLASSIFICATION_TYPE":"U","NORAD_CAT_ID":61785,"ELEMENT_SET_NO":999,"REV_AT_EPOCH":11824,"BSTAR":0.00093946,"MEAN_MOTION_DOT":0.00054724,"MEAN_MOTION_DDOT":0},{"OBJECT_NAME":"TEVEL2-4","OBJECT_ID":"2025-052D","EPOCH":"2026-03-04T15:51:39.343392","MEAN_MOTION":15.30670344,"ECCENTRICITY":0.0004531,"INCLINATION":97.4028,"RA_OF_ASC_NODE":320.1035,"ARG_OF_PERICENTER":104.7572,"MEAN_ANOMALY":255.4171,"EPHEMERIS_TYPE":0,"CLASSIFICATION_TYPE":"U","NORAD_CAT_ID":63213,"ELEMENT_SET_NO":999,"REV_AT_EPOCH":5410,"BSTAR":0.00093067,"MEAN_MOTION_DOT":0.00027592,"MEAN_MOTION_DDOT":0},{"OBJECT_NAME":"TEVEL2-5","OBJECT_ID":"2025-052E","EPOCH":"2026-03-04T03:33:42.321600","MEAN_MOTION":15.30526069,"ECCENTRICITY":0.00044806,"INCLINATION":97.4033,"RA_OF_ASC_NODE":319.5661,"ARG_OF_PERICENTER":105.8513,"MEAN_ANOMALY":254.3222,"EPHEMERIS_TYPE":0,"CLASSIFICATION_TYPE":"U","NORAD_CAT_ID":63214,"ELEMENT_SET_NO":999,"REV_AT_EPOCH":5402,"BSTAR":0.00097911461,"MEAN_MOTION_DOT":0.00028908,"MEAN_MOTION_DDOT":0},{"OBJECT_NAME":"TEVEL2-6","OBJECT_ID":"2025-052F","EPOCH":"2026-03-04T05:21:47.243808","MEAN_MOTION":15.3049056,"ECCENTRICITY":0.00045924,"INCLINATION":97.4034,"RA_OF_ASC_NODE":319.6264,"ARG_OF_PERICENTER":107.2069,"MEAN_ANOMALY":252.9674,"EPHEMERIS_TYPE":0,"CLASSIFICATION_TYPE":"U","NORAD_CAT_ID":63215,"ELEMENT_SET_NO":999,"REV_AT_EPOCH":5403,"BSTAR":0.0010322713,"MEAN_MOTION_DOT":0.00030455,"MEAN_MOTION_DDOT":0},{"OBJECT_NAME":"TEVEL2-1","OBJECT_ID":"2025-052H","EPOCH":"2026-03-04T11:33:48.895488","MEAN_MOTION":15.30092239,"ECCENTRICITY":0.0004488,"INCLINATION":97.4007,"RA_OF_ASC_NODE":319.6219,"ARG_OF_PERICENTER":115.3956,"MEAN_ANOMALY":244.775,"EPHEMERIS_TYPE":0,"CLASSIFICATION_TYPE":"U","NORAD_CAT_ID":63217,"ELEMENT_SET_NO":999,"REV_AT_EPOCH":5406,"BSTAR":0.0010502674,"MEAN_MOTION_DOT":0.00030609,"MEAN_MOTION_DDOT":0}]
